STARLINK-31936          
1 59875U 24098T   26068.53805881  .00000654  00000+0  33307-4 0  9991
2 59875  43.0038 246.5196 0001152 272.6607  87.4113 15.27575371102185
OTTER                   
1 62623U 25009Q   26068.72300813  .00012198  00000+0  45151-3 0  9990
2 62623  97.4065 151.3812 0003573 310.7710  49.3219 15.27809545 63722
